FENGYUN 1C DEB          
1 38123U 99025EPU 17344.33169750  .00000690  00000-0  10360-2 0  9992
2 38123 100.3485  28.5568 0439224  12.2611 348.8796 13.23588184397929
